[{"OBJECT_NAME":"STARLINK-34286","OBJECT_ID":"2025-161W","EPOCH":"2026-03-09T21:50:20.934528","MEAN_MOTION":15.30240937,"ECCENTRICITY":9.405e-5,"INCLINATION":53.1564,"RA_OF_ASC_NODE":293.1737,"ARG_OF_PERICENTER":62.4593,"MEAN_ANOMALY":297.6503,"EPHEMERIS_TYPE":0,"CLASSIFICATION_TYPE":"U","NORAD_CAT_ID":65035,"ELEMENT_SET_NO":999,"REV_AT_EPOCH":3426,"BSTAR":0.0017070651,"MEAN_MOTION_DOT":0.00050608,"MEAN_MOTION_DDOT":0},{"OBJECT_NAME":"OBJECT D","OBJECT_ID":"2021-102D","EPOCH":"2026-03-09T14:47:14.426880","MEAN_MOTION":15.2846442,"ECCENTRICITY":0.0009157,"INCLINATION":97.3342,"RA_OF_ASC_NODE":112.2633,"ARG_OF_PERICENTER":187.6206,"MEAN_ANOMALY":172.4897,"EPHEMERIS_TYPE":0,"CLASSIFICATION_TYPE":"U","NORAD_CAT_ID":49398,"ELEMENT_SET_NO":999,"REV_AT_EPOCH":23880,"BSTAR":0.00046011,"MEAN_MOTION_DOT":0.00012697,"MEAN_MOTION_DDOT":0}]
